STARLINK-5528           
1 56890U 23083Q   26068.43585981 -.00001402  00000+0 -88719-4 0  9994
2 56890  43.0025  83.0319 0000905 297.6330  62.4420 15.02541661151637
QPS-SAR-8 (AMATERU-IV)  
1 60542U 24149CC  26068.70418071  .00008268  00000+0  61811-3 0  9990
2 60542  97.6699 148.7511 0003873  93.1500 267.0168 15.03026697 85328
